NORAD_CAT_ID,OBJECT_NAME,OBJECT_TYPE,EPOCH,MEAN_MOTION,ECCENTRICITY,INCLINATION,RA_OF_ASC_NODE,ARG_OF_PERICENTER,MEAN_ANOMALY,BSTAR,MEAN_MOTION_DOT,MEAN_MOTION_DDOT,TLE_LINE0,TLE_LINE1,TLE_LINE2,SEMIMAJOR_AXIS,PERIOD,APOGEE,PERIGEE,DECAYED
53920.0,STARLINK-5025,PAYLOAD,2022-12-08 14:00:01,15.47018984,0.0001061,53.2174,245.1231,83.0675,334.9664,-0.024293,-0.01141108,0.0,0 STARLINK-5025,1 53920U 22119AL  22342.58334491 -.01141108  00000-0 -24293-1 0  9993,2 53920  53.2174 245.1231 0001061  83.0675 334.9664 15.47018984  1304,6803.589,93.082,426.176,424.732,0.0
53920.0,STARLINK-5025,PAYLOAD,2022-12-08 22:00:01,15.46206552,0.0001221,53.2175,243.5391,79.2995,35.7718,-0.025031,-0.01142903,0.0,0 STARLINK-5025,1 53920U 22119AL  22342.91668981 -.01142903  00000-0 -25031-1 0  9999,2 53920  53.2175 243.5391 0001221  79.2995  35.7718 15.46206552  1309,6805.972,93.131,428.668,427.006,0.0
53920.0,STARLINK-5025,PAYLOAD,2022-12-09 14:00:01,15.44577798,0.0001262999999999,53.2171,240.3735,93.6822,132.3406,-0.02641,-0.01140279,0.0,0 STARLINK-5025,1 53920U 22119AL  22343.58334491 -.01140279  00000-0 -26410-1 0  9995,2 53920  53.2171 240.3735 0001263  93.6822 132.3406 15.44577798  1306,6810.755999999999,93.229,433.481,431.761,0.0
53920.0,STARLINK-5025,PAYLOAD,2022-12-09 22:00:00,15.43787785,0.0001306,53.2168,238.7955,111.5392,168.5115,-0.027964,-0.01172193,0.0,0 STARLINK-5025,1 53920U 22119AL  22343.91667824 -.01172193  00000-0 -27964-1 0  9996,2 53920  53.2168 238.7955 0001306 111.5392 168.5115 15.43787785 12361,6813.079000000002,93.277,435.834,434.054,0.0
53920.0,STARLINK-5025,PAYLOAD,2022-12-10 14:00:01,15.42135677,0.0001116,53.2173,235.6407,112.8171,272.3947,-0.028654,-0.01138734,0.0,0 STARLINK-5025,1 53920U 22119AL  22344.58334491 -.01138734  00000-0 -28654-1 0  9991,2 53920  53.2173 235.6407 0001116 112.8171 272.3947 15.42135677  1308,6817.944,93.377,440.57,439.048,0.0
53920.0,STARLINK-5025,PAYLOAD,2022-12-11 00:00:00,15.411203699999998,0.0001355,53.2173,233.676,87.24799999999998,91.693,-0.029715,-0.01141153,0.0,0 STARLINK-5025,1 53920U 22119AL  22345.00001157 -.01141153  00000-0 -29715-1 0  9997,2 53920  53.2173 233.6760 0001355  87.2480  91.6930 15.41120370  1308,6820.939,93.439,443.728,441.879,0.0
53920.0,STARLINK-5025,PAYLOAD,2022-12-11 06:00:00,15.40510173,0.0001221,53.2172,232.4973,82.5025,43.9438,-0.030316,-0.01140749,0.0,0 STARLINK-5025,1 53920U 22119AL  22345.25001157 -.01140749  00000-0 -30316-1 0  9993,2 53920  53.2172 232.4973 0001221  82.5025  43.9438 15.40510173 12572,6822.74,93.476,445.43800000000016,443.772,0.0
53920.0,STARLINK-5025,PAYLOAD,2022-12-11 14:00:01,15.39696996,0.0001361,53.2172,230.9258,108.6285,66.9702,-0.031198,-0.01142507,0.0,0 STARLINK-5025,1 53920U 22119AL  22345.58334491 -.01142507  00000-0 -31198-1 0  9992,2 53920  53.2172 230.9258 0001361 108.6285  66.9702 15.39696996  1308,6825.142,93.525,447.936,446.078,0.0
53920.0,STARLINK-5025,PAYLOAD,2022-12-11 22:00:01,15.38880445,0.000134,53.2175,229.3597,91.7847,132.0517,-0.031899,-0.01137525,0.0,0 STARLINK-5025,1 53920U 22119AL  22345.91668981 -.01137525  00000-0 -31899-1 0  9995,2 53920  53.2175 229.3597 0001340  91.7847 132.0517 15.38880445 12676,6827.556,93.575,450.336,448.506,0.0
53920.0,STARLINK-5025,PAYLOAD,2022-12-12 14:00:01,15.37252653,0.0001232,53.2173,226.2283,112.1049,205.082,-0.03363,-0.01136951,0.0,0 STARLINK-5025,1 53920U 22119AL  22346.58334491 -.01136951  00000-0 -33630-1 0  9992,2 53920  53.2173 226.2283 0001232 112.1049 205.0820 15.37252653 12776,6832.375,93.674,455.081,453.398,0.0
53920.0,STARLINK-5025,PAYLOAD,2022-12-12 22:00:00,15.3644125,0.0001157,53.2175,224.668,73.6343,288.7905,-0.034631,-0.01139993,0.0,0 STARLINK-5025,1 53920U 22119AL  22346.91667824 -.01139993  00000-0 -34631-1 0  9999,2 53920  53.2175 224.6680 0001157  73.6343 288.7905 15.36441250  1306,6834.78,93.723,457.436,455.854,0.0
53920.0,STARLINK-5025,PAYLOAD,2022-12-13 06:00:00,15.35627511,0.0001094,53.2172,223.1077,96.6861,310.001,-0.035539,-0.01139515,0.0,0 STARLINK-5025,1 53920U 22119AL  22347.25001157 -.01139515  00000-0 -35539-1 0  9996,2 53920  53.2172 223.1077 0001094  96.6861 310.0010 15.35627511 12883,6837.194,93.773,459.807,458.311,0.0
53920.0,STARLINK-5025,PAYLOAD,2022-12-13 12:00:00,15.35014293,0.0001135,53.2174,221.9377,109.7001,239.5438,-0.036098,-0.0113522,0.0,0 STARLINK-5025,1 53920U 22119AL  22347.50001157 -.01135220  00000-0 -36098-1 0  9994,2 53920  53.2174 221.9377 0001135 109.7001 239.5438 15.35014293  1303,6839.015,93.81,461.656,460.104,0.0
53920.0,STARLINK-5025,PAYLOAD,2022-12-13 22:00:00,15.33999501,0.000134,53.2174,219.9938,74.8314,57.4465,-0.037427,-0.01139058,0.0,0 STARLINK-5025,1 53920U 22119AL  22347.91667824 -.01139058  00000-0 -37427-1 0  9998,2 53920  53.2174 219.9938 0001340  74.8314  57.4465 15.33999501  1309,6842.031,93.872,464.81300000000016,462.979,0.0
53920.0,STARLINK-5025,PAYLOAD,2022-12-14 06:00:00,15.33185786,0.0001378,53.2172,218.439,72.3593,101.2475,-0.038394,-0.01138644,0.0,0 STARLINK-5025,1 53920U 22119AL  22348.25001157 -.01138644  00000-0 -38394-1 0  9991,2 53920  53.2172 218.4390 0001378  72.3593 101.2475 15.33185786 13030,6844.4519999999975,93.922,467.26,465.37300000000016,0.0
53920.0,STARLINK-5025,PAYLOAD,2022-12-14 14:00:01,15.32331776,0.0001426999999999,53.2167,216.8859,93.562,120.4145,-0.037325,-0.01082445,0.0,0 STARLINK-5025,1 53920U 22119AL  22348.58334491 -.01082445  00000-0 -37325-1 0  9997,2 53920  53.2167 216.8859 0001427  93.5620 120.4145 15.32331776  1302,6846.994000000002,93.974,469.836,467.882,0.0
53920.0,STARLINK-5025,PAYLOAD,2022-12-14 22:00:00,15.31581967,0.0001389,53.2169,215.337,97.4837,155.8345,-0.041631,-0.01170509,0.0,0 STARLINK-5025,1 53920U 22119AL  22348.91667824 -.01170509  00000-0 -41631-1 0  9997,2 53920  53.2169 215.3370 0001389  97.4837 155.8345 15.31581967  1308,6849.229,94.02,472.045,470.143,0.0
53920.0,STARLINK-5025,PAYLOAD,2022-12-15 06:00:00,15.30745671,0.0001240999999999,53.2172,213.7876,100.641,191.0841,-0.041545,-0.01140654,0.0,0 STARLINK-5025,1 53920U 22119AL  22349.25001157 -.01140654  00000-0 -41545-1 0  9998,2 53920  53.2172 213.7876 0001241 100.6410 191.0841 15.30745671 13181,6851.723000000001,94.072,474.439,472.73800000000006,0.0
53920.0,STARLINK-5025,PAYLOAD,2022-12-15 14:00:01,15.29928279,0.0001182,53.2175,212.2398,96.6521,232.492,-0.042358,-0.01134282,0.0,0 STARLINK-5025,1 53920U 22119AL  22349.58334491 -.01134282  00000-0 -42358-1 0  9997,2 53920  53.2175 212.2398 0001182  96.6521 232.4920 15.29928279  1302,6854.163000000001,94.122,476.839,475.218,0.0
53920.0,STARLINK-5025,PAYLOAD,2022-12-15 22:00:00,15.29117474,0.0001163,53.2174,210.697,86.4791,279.1021,-0.043633,-0.01138934,0.0,0 STARLINK-5025,1 53920U 22119AL  22349.91667824 -.01138934  00000-0 -43633-1 0  9998,2 53920  53.2174 210.6970 0001163  86.4791 279.1021 15.29117474  1301,6856.5859999999975,94.172,479.249,477.654,0.0
53920.0,STARLINK-5025,PAYLOAD,2022-12-16 06:00:00,15.28303001,0.0001136,53.2173,209.1536,79.4793,321.5642,-0.044688,-0.01137613,0.0,0 STARLINK-5025,1 53920U 22119AL  22350.25001157 -.01137613  00000-0 -44688-1 0  9992,2 53920  53.2173 209.1536 0001136  79.4793 321.5642 15.28303001 13345,6859.022,94.222,481.666,480.108,0.0
53920.0,STARLINK-5025,PAYLOAD,2022-12-16 14:00:01,15.27499775,0.0001267,53.2166,207.612,82.1782,353.3438,-0.046407,-0.01151272,0.0,0 STARLINK-5025,1 53920U 22119AL  22350.58334491 -.01151272  00000-0 -46407-1 0  9996,2 53920  53.2166 207.6120 0001267  82.1782 353.3438 15.27499775  1305,6861.426,94.272,484.161,482.422,0.0
53920.0,STARLINK-5025,PAYLOAD,2022-12-16 22:00:00,15.26676233,0.0001338,53.2174,206.0746,74.3857,34.6463,-0.047015,-0.01138579,0.0,0 STARLINK-5025,1 53920U 22119AL  22350.91667824 -.01138579  00000-0 -47015-1 0  9993,2 53920  53.2174 206.0746 0001338  74.3857  34.6463 15.26676233  1308,6863.894,94.323,486.677,484.84,0.0
53920.0,STARLINK-5025,PAYLOAD,2022-12-17 06:00:00,15.25861014,0.0001346,53.2173,204.5367,76.6113,64.9498,-0.048068,-0.01150953,0.0,0 STARLINK-5025,1 53920U 22119AL  22351.25001157 -.01150953  00000-0 -48068-1 0  9991,2 53920  53.2173 204.5367 0001346  76.6113  64.9498 15.25861014 13497,6866.3380000000025,94.373,489.127,487.279,0.0
53920.0,STARLINK-5025,PAYLOAD,2022-12-17 14:00:01,15.25049957,0.0001423,53.2168,203.0011,81.5004,91.6727,-0.049403,-0.01154013,0.0,0 STARLINK-5025,1 53920U 22119AL  22351.58335648 -.01154013  00000-0 -49403-1 0  9997,2 53920  53.2168 203.0011 0001423  81.5004  91.6727 15.25049957  1304,6868.772,94.423,491.615,489.66,0.0
53920.0,STARLINK-5025,PAYLOAD,2022-12-17 22:00:00,15.24230534,0.0001394,53.2169,201.4696,92.3069,111.3768,-0.050274,-0.01146362,0.0,0 STARLINK-5025,1 53920U 22119AL  22351.91667824 -.01146362  00000-0 -50274-1 0  9994,2 53920  53.2169 201.4696 0001394  92.3069 111.3768 15.24230534  1301,6871.234,94.474,494.057,492.141,0.0
53920.0,STARLINK-5025,PAYLOAD,2022-12-18 06:00:02,15.23420674,0.0001363,53.2174,199.937,94.3017,139.0392,-0.051807,-0.01152489,0.0,0 STARLINK-5025,1 53920U 22119AL  22352.25002315 -.01152489  00000-0 -51807-1 0  9990,2 53920  53.2174 199.9370 0001363  94.3017 139.0392 15.23420674 13643,6873.669,94.524,496.471,494.597,0.0
53920.0,STARLINK-5025,PAYLOAD,2022-12-18 14:00:01,15.22605166,0.0001367,53.2175,198.4068,99.7446,162.1499,-0.052876,-0.01148353,0.0,0 STARLINK-5025,1 53920U 22119AL  22352.58334491 -.01148353  00000-0 -52876-1 0  9991,2 53920  53.2175 198.4068 0001367  99.7446 162.1499 15.22605166  1306,6876.123000000001,94.575,498.92800000000005,497.048,0.0
53920.0,STARLINK-5025,PAYLOAD,2022-12-18 22:00:00,15.2179152,0.0001314,53.2175,196.8812,96.0732,193.459,-0.054211,-0.01149181,0.0,0 STARLINK-5025,1 53920U 22119AL  22352.91667824 -.01149181  00000-0 -54211-1 0  9992,2 53920  53.2175 196.8812 0001314  96.0732 193.4590 15.21791520  1303,6878.574000000001,94.625,501.343,499.535,0.0
